STARLINK-31029          
1 58712U 24002H   26068.72801249  .00000880  00000+0  41851-4 0  9994
2 58712  53.1599 229.5833 0001017  81.6731 278.4385 15.30194615122023
YAOGAN-43 01D           
1 60461U 24148D   26068.43560480  .00010676  00000+0  37766-3 0  9999
2 60461  35.0010  61.7102 0002556 326.2473  33.8080 15.28369377 87008
