[{"OBJECT_NAME":"STARLINK-31029","OBJECT_ID":"2024-002H","EPOCH":"2026-03-09T17:28:20.279136","MEAN_MOTION":15.30194615,"ECCENTRICITY":0.00010166,"INCLINATION":53.1599,"RA_OF_ASC_NODE":229.5833,"ARG_OF_PERICENTER":81.6731,"MEAN_ANOMALY":278.4385,"EPHEMERIS_TYPE":0,"CLASSIFICATION_TYPE":"U","NORAD_CAT_ID":58712,"ELEMENT_SET_NO":999,"REV_AT_EPOCH":12202,"BSTAR":4.1851412e-5,"MEAN_MOTION_DOT":8.8e-6,"MEAN_MOTION_DDOT":0},{"OBJECT_NAME":"YAOGAN-43 01D","OBJECT_ID":"2024-148D","EPOCH":"2026-03-09T10:27:16.254720","MEAN_MOTION":15.28369377,"ECCENTRICITY":0.00025569,"INCLINATION":35.001,"RA_OF_ASC_NODE":61.7102,"ARG_OF_PERICENTER":326.2473,"MEAN_ANOMALY":33.808,"EPHEMERIS_TYPE":0,"CLASSIFICATION_TYPE":"U","NORAD_CAT_ID":60461,"ELEMENT_SET_NO":999,"REV_AT_EPOCH":8700,"BSTAR":0.00037765912,"MEAN_MOTION_DOT":0.00010676,"MEAN_MOTION_DDOT":0}]
